start=new Date('2022-01-07T00:00:00.000Z').valueOf();
sats=[{"TLE_LINE1":"1 47868U 21021J   22006.77759060 -.00001391  00000-0 -74441-4 0  9990","TLE_LINE2":"2 47868  53.0549 208.2214 0002867  79.3388 280.7923 15.06393010 47506","LAUNCH_DATE":"2021-03-14","OBJECT_NAME":"STARLINK-2323","MEAN_ANOMALY":"280.7923","PERIAPSIS":"545.249","GP_ID":"193354436","MEAN_MOTION_DOT":"-0.00001391","MEAN_MOTION_DDOT":"0.0000000000000","FILE":"3265870","APOAPSIS":"549.220","OBJECT_ID":"2021-021J","DECAY_DATE":null,"MEAN_ELEMENT_THEORY":"SGP4","INCLINATION":"53.0549","EPHEMERIS_TYPE":"0","CENTER_NAME":"EARTH","SITE":"AFETR","ELEMENT_SET_NO":"999","CLASSIFICATION_TYPE":"U","PERIOD":"95.593","TIME_SYSTEM":"UTC","MEAN_MOTION":"15.06393010","COUNTRY_CODE":"US","SEMIMAJOR_AXIS":"6925.370","REF_FRAME":"TEME","OBJECT_TYPE":"PAYLOAD","ECCENTRICITY":"0.00028670","NORAD_CAT_ID":"47868","ARG_OF_PERICENTER":"79.3388","BSTAR":"-0.00007444100000","RA_OF_ASC_NODE":"208.2214","EPOCH":"2022-01-06T18:39:43.827840","RCS_SIZE":"LARGE","REV_AT_EPOCH":"4750"},{"PERIOD":"95.593","TIME_SYSTEM":"UTC","CLASSIFICATION_TYPE":"U","OBJECT_TYPE":"PAYLOAD","ECCENTRICITY":"0.00021130","MEAN_MOTION":"15.06391935","COUNTRY_CODE":"US","REF_FRAME":"TEME","SEMIMAJOR_AXIS":"6925.373","RA_OF_ASC_NODE":"257.6389","BSTAR":"-0.00003097700000","EPOCH":"2022-01-06T21:54:47.100960","NORAD_CAT_ID":"47869","ARG_OF_PERICENTER":"57.0335","REV_AT_EPOCH":"4692","RCS_SIZE":"MEDIUM","OBJECT_ID":"2021-021K","MEAN_ELEMENT_THEORY":"SGP4","INCLINATION":"53.0569","DECAY_DATE":null,"SITE":"AFETR","CENTER_NAME":"EARTH","ELEMENT_SET_NO":"999","EPHEMERIS_TYPE":"0","PERIAPSIS":"545.775","MEAN_ANOMALY":"303.0857","OBJECT_NAME":"STARLINK-2324","GP_ID":"193355187","MEAN_MOTION_DOT":"-0.00000743","FILE":"3265870","APOAPSIS":"548.702","MEAN_MOTION_DDOT":"0.0000000000000","TLE_LINE1":"1 47869U 21021K   22006.91304515 -.00000743  00000-0 -30977-4 0  9994","TLE_LINE2":"2 47869  53.0569 257.6389 0002113  57.0335 303.0857 15.06391935 46923","LAUNCH_DATE":"2021-03-14"},{"APOAPSIS":"548.586","FILE":"3265870","MEAN_MOTION_DDOT":"0.0000000000000","PERIAPSIS":"545.930","MEAN_ANOMALY":"305.0566","OBJECT_NAME":"STARLINK-2326","GP_ID":"193353435","MEAN_MOTION_DOT":"-0.00000409","LAUNCH_DATE":"2021-03-14","TLE_LINE1":"1 47870U 21021L   22006.46658255 -.00000409  00000-0 -85726-5 0  9991","TLE_LINE2":"2 47870  53.0471 284.6562 0001917  55.0603 305.0566 15.06385471 46294","RA_OF_ASC_NODE":"284.6562","BSTAR":"-0.00000857260000","EPOCH":"2022-01-06T11:11:52.732320","NORAD_CAT_ID":"47870","ARG_OF_PERICENTER":"55.0603","REV_AT_EPOCH":"4629","RCS_SIZE":"MEDIUM","PERIOD":"95.593","TIME_SYSTEM":"UTC","CLASSIFICATION_TYPE":"U","OBJECT_TYPE":"PAYLOAD","ECCENTRICITY":"0.00019170","COUNTRY_CODE":"US","MEAN_MOTION":"15.06385471","SEMIMAJOR_AXIS":"6925.393","REF_FRAME":"TEME","MEAN_ELEMENT_THEORY":"SGP4","INCLINATION":"53.0471","DECAY_DATE":null,"CENTER_NAME":"EARTH","SITE":"AFETR","ELEMENT_SET_NO":"999","EPHEMERIS_TYPE":"0","OBJECT_ID":"2021-021L"},{"MEAN_MOTION_DDOT":"0.0000000000000","FILE":"3265870","APOAPSIS":"548.589","OBJECT_NAME":"STARLINK-2327","PERIAPSIS":"545.874","MEAN_ANOMALY":"291.9950","GP_ID":"193353685","MEAN_MOTION_DOT":"-0.00000718","LAUNCH_DATE":"2021-03-14","TLE_LINE1":"1 47871U 21021M   22006.90935690 -.00000718  00000-0 -29316-4 0  9997","TLE_LINE2":"2 47871  53.0562 257.6547 0001960  68.1247 291.9950 15.06394186 46817","NORAD_CAT_ID":"47871","ARG_OF_PERICENTER":"68.1247","RA_OF_ASC_NODE":"257.6547","BSTAR":"-0.00002931600000","EPOCH":"2022-01-06T21:49:28.436160","RCS_SIZE":"LARGE","REV_AT_EPOCH":"4681","CLASSIFICATION_TYPE":"U","PERIOD":"95.593","TIME_SYSTEM":"UTC","MEAN_MOTION":"15.06394186","COUNTRY_CODE":"US","REF_FRAME":"TEME","SEMIMAJOR_AXIS":"6925.366","OBJECT_TYPE":"PAYLOAD","ECCENTRICITY":"0.00019600","DECAY_DATE":null,"MEAN_ELEMENT_THEORY":"SGP4","INCLINATION":"53.0562","EPHEMERIS_TYPE":"0","ELEMENT_SET_NO":"999","SITE":"AFETR","CENTER_NAME":"EARTH","OBJECT_ID":"2021-021M"},{"DECAY_DATE":null,"MEAN_ELEMENT_THEORY":"SGP4","INCLINATION":"53.0607","EPHEMERIS_TYPE":"0","SITE":"AFETR","CENTER_NAME":"EARTH","ELEMENT_SET_NO":"999","OBJECT_ID":"2021-021N","NORAD_CAT_ID":"47872","ARG_OF_PERICENTER":"78.9509","BSTAR":"-0.00005557100000","RA_OF_ASC_NODE":"217.9402","EPOCH":"2022-01-06T20:08:38.095584","RCS_SIZE":"LARGE","REV_AT_EPOCH":"4737","CLASSIFICATION_TYPE":"U","PERIOD":"95.593","TIME_SYSTEM":"UTC","COUNTRY_CODE":"US","MEAN_MOTION":"15.06394268","REF_FRAME":"TEME","SEMIMAJOR_AXIS":"6925.366","OBJECT_TYPE":"PAYLOAD","ECCENTRICITY":"0.00016850","LAUNCH_DATE":"2021-03-14","TLE_LINE1":"1 47872U 21021N   22006.83932981 -.00001109  00000-0 -55571-4 0  9997","TLE_LINE2":"2 47872  53.0607 217.9402 0001685  78.9509 281.1669 15.06394268 47372","MEAN_MOTION_DDOT":"0.0000000000000","FILE":"3265870","APOAPSIS":"548.398","OBJECT_NAME":"STARLINK-2328","PERIAPSIS":"546.064","MEAN_ANOMALY":"281.1669","GP_ID":"193354937","MEAN_MOTION_DOT":"-0.00001109"},{"ARG_OF_PERICENTER":"55.8034","NORAD_CAT_ID":"47873","EPOCH":"2022-01-06T21:22:56.475552","RA_OF_ASC_NODE":"257.7157","BSTAR":"-0.00001371300000","RCS_SIZE":"LARGE","REV_AT_EPOCH":"4680","CLASSIFICATION_TYPE":"U","TIME_SYSTEM":"UTC","PERIOD":"95.593","REF_FRAME":"TEME","SEMIMAJOR_AXIS":"6925.371","MEAN_MOTION":"15.06392538","COUNTRY_CODE":"US","ECCENTRICITY":"0.00022990","OBJECT_TYPE":"PAYLOAD","DECAY_DATE":null,"INCLINATION":"53.0541","MEAN_ELEMENT_THEORY":"SGP4","EPHEMERIS_TYPE":"0","SITE":"AFETR","ELEMENT_SET_NO":"999","CENTER_NAME":"EARTH","OBJECT_ID":"2021-021P","MEAN_MOTION_DDOT":"0.0000000000000","FILE":"3265870","APOAPSIS":"548.829","OBJECT_NAME":"STARLINK-2329","PERIAPSIS":"545.644","MEAN_ANOMALY":"304.3173","MEAN_MOTION_DOT":"-0.00000486","GP_ID":"193354687","LAUNCH_DATE":"2021-03-14","TLE_LINE1":"1 47873U 21021P   22006.89093143 -.00000486  00000-0 -13713-4 0  9991","TLE_LINE2":"2 47873  53.0541 257.7157 0002299  55.8034 304.3173 15.06392538 46801"},{"OBJECT_ID":"2021-021Q","ELEMENT_SET_NO":"999","SITE":"AFETR","CENTER_NAME":"EARTH","EPHEMERIS_TYPE":"0","MEAN_ELEMENT_THEORY":"SGP4","INCLINATION":"53.0521","DECAY_DATE":null,"OBJECT_TYPE":"PAYLOAD","ECCENTRICITY":"0.00021570","COUNTRY_CODE":"US","MEAN_MOTION":"15.06369699","SEMIMAJOR_AXIS":"6925.441","REF_FRAME":"TEME","PERIOD":"95.594","TIME_SYSTEM":"UTC","CLASSIFICATION_TYPE":"U","REV_AT_EPOCH":"4743","RCS_SIZE":"LARGE","BSTAR":"0.00032424000000","RA_OF_ASC_NODE":"212.9850","EPOCH":"2022-01-06T19:59:59.728416","NORAD_CAT_ID":"47874","ARG_OF_PERICENTER":"69.2253","TLE_LINE2":"2 47874  53.0521 212.9850 0002157  69.2253 290.8967 15.06369699 47430","TLE_LINE1":"1 47874U 21021Q   22006.83333019  .00004547  00000-0  32424-3 0  9994","LAUNCH_DATE":"2021-03-14","GP_ID":"193353936","MEAN_MOTION_DOT":"0.00004547","MEAN_ANOMALY":"290.8967","PERIAPSIS":"545.813","OBJECT_NAME":"STARLINK-2330","APOAPSIS":"548.800","FILE":"3265870","MEAN_MOTION_DDOT":"0.0000000000000"},{"TLE_LINE2":"2 47875  53.0570 267.7641 0002221  58.4174 301.7031 15.06384654 46728","TLE_LINE1":"1 47875U 21021R   22006.88263741 -.00000804  00000-0 -35090-4 0  9991","LAUNCH_DATE":"2021-03-14","GP_ID":"193354186","MEAN_MOTION_DOT":"-0.00000804","OBJECT_NAME":"STARLINK-2331","MEAN_ANOMALY":"301.7031","PERIAPSIS":"545.722","MEAN_MOTION_DDOT":"0.0000000000000","FILE":"3265870","APOAPSIS":"548.799","OBJECT_ID":"2021-021R","EPHEMERIS_TYPE":"0","ELEMENT_SET_NO":"999","SITE":"AFETR","CENTER_NAME":"EARTH","DECAY_DATE":null,"MEAN_ELEMENT_THEORY":"SGP4","INCLINATION":"53.0570","MEAN_MOTION":"15.06384654","COUNTRY_CODE":"US","SEMIMAJOR_AXIS":"6925.396","REF_FRAME":"TEME","OBJECT_TYPE":"PAYLOAD","ECCENTRICITY":"0.00022210","CLASSIFICATION_TYPE":"U","PERIOD":"95.593","TIME_SYSTEM":"UTC","RCS_SIZE":"LARGE","REV_AT_EPOCH":"4672","NORAD_CAT_ID":"47875","ARG_OF_PERICENTER":"58.4174","BSTAR":"-0.00003509000000","RA_OF_ASC_NODE":"267.7641","EPOCH":"2022-01-06T21:10:59.872224"},{"BSTAR":"0.00016246000000","RA_OF_ASC_NODE":"267.8232","EPOCH":"2022-01-06T20:55:03.425088","NORAD_CAT_ID":"47876","ARG_OF_PERICENTER":"58.9322","REV_AT_EPOCH":"4667","RCS_SIZE":"LARGE","PERIOD":"95.592","TIME_SYSTEM":"UTC","CLASSIFICATION_TYPE":"U","OBJECT_TYPE":"PAYLOAD","ECCENTRICITY":"0.00020330","COUNTRY_CODE":"US","MEAN_MOTION":"15.06398859","REF_FRAME":"TEME","SEMIMAJOR_AXIS":"6925.352","MEAN_ELEMENT_THEORY":"SGP4","INCLINATION":"53.0565","DECAY_DATE":null,"SITE":"AFETR","ELEMENT_SET_NO":"999","CENTER_NAME":"EARTH","EPHEMERIS_TYPE":"0","OBJECT_ID":"2021-021S","FILE":"3265870","APOAPSIS":"548.625","MEAN_MOTION_DDOT":"0.0000000000000","MEAN_ANOMALY":"301.1866","PERIAPSIS":"545.809","OBJECT_NAME":"STARLINK-2332","GP_ID":"193354437","MEAN_MOTION_DOT":"0.00002139","LAUNCH_DATE":"2021-03-14","TLE_LINE1":"1 47876U 21021S   22006.87156742  .00002139  00000-0  16246-3 0  9995","TLE_LINE2":"2 47876  53.0565 267.8232 0002033  58.9322 301.1866 15.06398859 46677"},{"MEAN_MOTION_DOT":"-0.00000708","GP_ID":"193355188","OBJECT_NAME":"STARLINK-2333","MEAN_ANOMALY":"297.7721","PERIAPSIS":"545.886","MEAN_MOTION_DDOT":"0.0000000000000","FILE":"3265870","APOAPSIS":"548.571","TLE_LINE2":"2 47877  53.0569 267.7440 0001939  62.3464 297.7721 15.06395070 46663","TLE_LINE1":"1 47877U 21021T   22006.88632126 -.00000708  00000-0 -28650-4 0  9997","LAUNCH_DATE":"2021-03-14","REF_FRAME":"TEME","SEMIMAJOR_AXIS":"6925.364","COUNTRY_CODE":"US","MEAN_MOTION":"15.06395070","ECCENTRICITY":"0.00019390","OBJECT_TYPE":"PAYLOAD","CLASSIFICATION_TYPE":"U","TIME_SYSTEM":"UTC","PERIOD":"95.592","RCS_SIZE":"LARGE","REV_AT_EPOCH":"4666","ARG_OF_PERICENTER":"62.3464","NORAD_CAT_ID":"47877","EPOCH":"2022-01-06T21:16:18.156864","BSTAR":"-0.00002865000000","RA_OF_ASC_NODE":"267.7440","OBJECT_ID":"2021-021T","EPHEMERIS_TYPE":"0","CENTER_NAME":"EARTH","SITE":"AFETR","ELEMENT_SET_NO":"999","DECAY_DATE":null,"INCLINATION":"53.0569","MEAN_ELEMENT_THEORY":"SGP4"}];
